[{"OBJECT_NAME":"STARLINK-4144","OBJECT_ID":"2022-086R","EPOCH":"2026-03-03T17:14:45.135744","MEAN_MOTION":15.08839155,"ECCENTRICITY":0.00012697,"INCLINATION":53.2165,"RA_OF_ASC_NODE":220.9271,"ARG_OF_PERICENTER":103.2245,"MEAN_ANOMALY":256.8889,"EPHEMERIS_TYPE":0,"CLASSIFICATION_TYPE":"U","NORAD_CAT_ID":53257,"ELEMENT_SET_NO":999,"REV_AT_EPOCH":20016,"BSTAR":4.11477e-5,"MEAN_MOTION_DOT":3.67e-6,"MEAN_MOTION_DDOT":0},{"OBJECT_NAME":"STARLINK-4127","OBJECT_ID":"2022-086S","EPOCH":"2026-03-03T17:25:20.853984","MEAN_MOTION":15.08842837,"ECCENTRICITY":0.00013529,"INCLINATION":53.2163,"RA_OF_ASC_NODE":220.8944,"ARG_OF_PERICENTER":104.7698,"MEAN_ANOMALY":255.3444,"EPHEMERIS_TYPE":0,"CLASSIFICATION_TYPE":"U","NORAD_CAT_ID":53258,"ELEMENT_SET_NO":999,"REV_AT_EPOCH":20016,"BSTAR":5.2972553e-5,"MEAN_MOTION_DOT":5.55e-6,"MEAN_MOTION_DDOT":0},{"OBJECT_NAME":"STARLINK-4140","OBJECT_ID":"2022-086T","EPOCH":"2026-03-03T16:21:42.356736","MEAN_MOTION":15.08838316,"ECCENTRICITY":0.00014268,"INCLINATION":53.2184,"RA_OF_ASC_NODE":220.7354,"ARG_OF_PERICENTER":97.3408,"MEAN_ANOMALY":262.7746,"EPHEMERIS_TYPE":0,"CLASSIFICATION_TYPE":"U","NORAD_CAT_ID":53259,"ELEMENT_SET_NO":999,"REV_AT_EPOCH":20016,"BSTAR":4.2692039e-5,"MEAN_MOTION_DOT":3.92e-6,"MEAN_MOTION_DDOT":0},{"OBJECT_NAME":"STARLINK-4062","OBJECT_ID":"2022-086V","EPOCH":"2026-03-03T16:58:51.072384","MEAN_MOTION":15.0884318,"ECCENTRICITY":0.00012995,"INCLINATION":53.2163,"RA_OF_ASC_NODE":220.9761,"ARG_OF_PERICENTER":86.4415,"MEAN_ANOMALY":273.6726,"EPHEMERIS_TYPE":0,"CLASSIFICATION_TYPE":"U","NORAD_CAT_ID":53261,"ELEMENT_SET_NO":999,"REV_AT_EPOCH":20016,"BSTAR":5.7092143e-5,"MEAN_MOTION_DOT":6.21e-6,"MEAN_MOTION_DDOT":0},{"OBJECT_NAME":"STARLINK-4085","OBJECT_ID":"2022-086W","EPOCH":"2026-03-03T17:09:26.134848","MEAN_MOTION":15.08851199,"ECCENTRICITY":0.00011906,"INCLINATION":53.2168,"RA_OF_ASC_NODE":220.9408,"ARG_OF_PERICENTER":118.6842,"MEAN_ANOMALY":241.427,"EPHEMERIS_TYPE":0,"CLASSIFICATION_TYPE":"U","NORAD_CAT_ID":53262,"ELEMENT_SET_NO":999,"REV_AT_EPOCH":20016,"BSTAR":1.78458e-5,"MEAN_MOTION_DOT":-4.0e-8,"MEAN_MOTION_DDOT":0},{"OBJECT_NAME":"STARLINK-4130","OBJECT_ID":"2022-086X","EPOCH":"2026-03-03T20:04:20.209728","MEAN_MOTION":15.08851363,"ECCENTRICITY":0.00011404,"INCLINATION":53.2165,"RA_OF_ASC_NODE":220.3978,"ARG_OF_PERICENTER":86.8527,"MEAN_ANOMALY":273.2596,"EPHEMERIS_TYPE":0,"CLASSIFICATION_TYPE":"U","NORAD_CAT_ID":53263,"ELEMENT_SET_NO":999,"REV_AT_EPOCH":20018,"BSTAR":0.00021378394,"MEAN_MOTION_DOT":3.117e-5,"MEAN_MOTION_DDOT":0},{"OBJECT_NAME":"STARLINK-3950","OBJECT_ID":"2022-086Y","EPOCH":"2026-03-03T17:04:08.972544","MEAN_MOTION":15.08843471,"ECCENTRICITY":0.00011857,"INCLINATION":53.217,"RA_OF_ASC_NODE":220.9597,"ARG_OF_PERICENTER":82.6964,"MEAN_ANOMALY":277.4163,"EPHEMERIS_TYPE":0,"CLASSIFICATION_TYPE":"U","NORAD_CAT_ID":53264,"ELEMENT_SET_NO":999,"REV_AT_EPOCH":20016,"BSTAR":0.00015483895,"MEAN_MOTION_DOT":2.177e-5,"MEAN_MOTION_DDOT":0},{"OBJECT_NAME":"STARLINK-4097","OBJECT_ID":"2022-086Z","EPOCH":"2026-03-03T16:42:57.683808","MEAN_MOTION":15.08839993,"ECCENTRICITY":0.00012549,"INCLINATION":53.2173,"RA_OF_ASC_NODE":221.0255,"ARG_OF_PERICENTER":86.1529,"MEAN_ANOMALY":273.9607,"EPHEMERIS_TYPE":0,"CLASSIFICATION_TYPE":"U","NORAD_CAT_ID":53265,"ELEMENT_SET_NO":999,"REV_AT_EPOCH":20016,"BSTAR":7.8455815e-5,"MEAN_MOTION_DOT":9.61e-6,"MEAN_MOTION_DDOT":0},{"OBJECT_NAME":"STARLINK-4058","OBJECT_ID":"2022-086AA","EPOCH":"2026-03-03T16:48:15.337728","MEAN_MOTION":15.0884435,"ECCENTRICITY":0.00013289,"INCLINATION":53.2172,"RA_OF_ASC_NODE":221.0091,"ARG_OF_PERICENTER":84.5954,"MEAN_ANOMALY":275.519,"EPHEMERIS_TYPE":0,"CLASSIFICATION_TYPE":"U","NORAD_CAT_ID":53266,"ELEMENT_SET_NO":999,"REV_AT_EPOCH":20016,"BSTAR":4.9046144e-5,"MEAN_MOTION_DOT":4.93e-6,"MEAN_MOTION_DDOT":0},{"OBJECT_NAME":"STARLINK-4060","OBJECT_ID":"2022-086AB","EPOCH":"2026-03-03T18:07:45.363360","MEAN_MOTION":15.0883258,"ECCENTRICITY":0.00012078,"INCLINATION":53.2172,"RA_OF_ASC_NODE":220.7618,"ARG_OF_PERICENTER":85.3635,"MEAN_ANOMALY":274.7495,"EPHEMERIS_TYPE":0,"CLASSIFICATION_TYPE":"U","NORAD_CAT_ID":53267,"ELEMENT_SET_NO":999,"REV_AT_EPOCH":20017,"BSTAR":2.4180657e-5,"MEAN_MOTION_DOT":9.7e-7,"MEAN_MOTION_DDOT":0},{"OBJECT_NAME":"STARLINK-4109","OBJECT_ID":"2022-086AC","EPOCH":"2026-03-03T18:13:04.047168","MEAN_MOTION":15.08850864,"ECCENTRICITY":0.00010021,"INCLINATION":53.2167,"RA_OF_ASC_NODE":220.7455,"ARG_OF_PERICENTER":111.9394,"MEAN_ANOMALY":248.1705,"EPHEMERIS_TYPE":0,"CLASSIFICATION_TYPE":"U","NORAD_CAT_ID":53268,"ELEMENT_SET_NO":999,"REV_AT_EPOCH":20017,"BSTAR":-0.00024968224,"MEAN_MOTION_DOT":-4.26e-5,"MEAN_MOTION_DDOT":0},{"OBJECT_NAME":"STARLINK-4057","OBJECT_ID":"2022-086AD","EPOCH":"2026-03-04T00:00:00.999648","MEAN_MOTION":15.74191381,"ECCENTRICITY":0.00011281,"INCLINATION":53.2174,"RA_OF_ASC_NODE":202.2254,"ARG_OF_PERICENTER":40.8606,"MEAN_ANOMALY":80.0879,"EPHEMERIS_TYPE":0,"CLASSIFICATION_TYPE":"U","NORAD_CAT_ID":53269,"ELEMENT_SET_NO":999,"REV_AT_EPOCH":582,"BSTAR":0.0076867721,"MEAN_MOTION_DOT":0.01254755,"MEAN_MOTION_DDOT":0},{"OBJECT_NAME":"STARLINK-4122","OBJECT_ID":"2022-086AG","EPOCH":"2026-03-03T16:28:23.105856","MEAN_MOTION":15.08845549,"ECCENTRICITY":0.00012495,"INCLINATION":53.2167,"RA_OF_ASC_NODE":211.0721,"ARG_OF_PERICENTER":89.6423,"MEAN_ANOMALY":270.4712,"EPHEMERIS_TYPE":0,"CLASSIFICATION_TYPE":"U","NORAD_CAT_ID":53272,"ELEMENT_SET_NO":999,"REV_AT_EPOCH":20029,"BSTAR":2.787659e-6,"MEAN_MOTION_DOT":-2.44e-6,"MEAN_MOTION_DDOT":0},{"OBJECT_NAME":"STARLINK-4051","OBJECT_ID":"2022-086AH","EPOCH":"2026-03-03T19:12:39.338784","MEAN_MOTION":15.08861374,"ECCENTRICITY":0.00012789,"INCLINATION":53.2169,"RA_OF_ASC_NODE":210.5595,"ARG_OF_PERICENTER":69.418,"MEAN_ANOMALY":290.6949,"EPHEMERIS_TYPE":0,"CLASSIFICATION_TYPE":"U","NORAD_CAT_ID":53273,"ELEMENT_SET_NO":999,"REV_AT_EPOCH":20030,"BSTAR":7.5919841e-5,"MEAN_MOTION_DOT":9.21e-6,"MEAN_MOTION_DDOT":0},{"OBJECT_NAME":"STARLINK-4050","OBJECT_ID":"2022-086AJ","EPOCH":"2026-03-03T16:17:47.481792","MEAN_MOTION":15.0884644,"ECCENTRICITY":0.0001091,"INCLINATION":53.2163,"RA_OF_ASC_NODE":211.1037,"ARG_OF_PERICENTER":81.472,"MEAN_ANOMALY":278.6396,"EPHEMERIS_TYPE":0,"CLASSIFICATION_TYPE":"U","NORAD_CAT_ID":53274,"ELEMENT_SET_NO":999,"REV_AT_EPOCH":20029,"BSTAR":-2.3416588e-5,"MEAN_MOTION_DOT":-6.61e-6,"MEAN_MOTION_DDOT":0},{"OBJECT_NAME":"STARLINK-4179","OBJECT_ID":"2022-086AK","EPOCH":"2026-03-03T17:31:59.903616","MEAN_MOTION":15.08833781,"ECCENTRICITY":0.00011996,"INCLINATION":53.2166,"RA_OF_ASC_NODE":210.8725,"ARG_OF_PERICENTER":83.2782,"MEAN_ANOMALY":276.8346,"EPHEMERIS_TYPE":0,"CLASSIFICATION_TYPE":"U","NORAD_CAT_ID":53275,"ELEMENT_SET_NO":999,"REV_AT_EPOCH":20029,"BSTAR":0.00022402976,"MEAN_MOTION_DOT":3.279e-5,"MEAN_MOTION_DDOT":0}]
