STARLINK-4144           
1 53257U 22086R   26062.71857796  .00000367  00000+0  41148-4 0  9993
2 53257  53.2165 220.9271 0001269 103.2245 256.8889 15.08839155200164
STARLINK-4127           
1 53258U 22086S   26062.72593581  .00000555  00000+0  52973-4 0  9991
2 53258  53.2163 220.8944 0001352 104.7698 255.3444 15.08842837200162
STARLINK-4140           
1 53259U 22086T   26062.68174024  .00000392  00000+0  42692-4 0  9990
2 53259  53.2184 220.7354 0001426  97.3408 262.7746 15.08838316200162
STARLINK-4062           
1 53261U 22086V   26062.70753556  .00000621  00000+0  57092-4 0  9994
2 53261  53.2163 220.9761 0001299  86.4415 273.6726 15.08843180200165
STARLINK-4085           
1 53262U 22086W   26062.71488582 -.00000004  00000+0  17846-4 0  9999
2 53262  53.2168 220.9408 0001190 118.6842 241.4270 15.08851199200167
STARLINK-4130           
1 53263U 22086X   26062.83634502  .00003117  00000+0  21378-3 0  9999
2 53263  53.2165 220.3978 0001140  86.8527 273.2596 15.08851363200181
STARLINK-3950           
1 53264U 22086Y   26062.71121496  .00002177  00000+0  15484-3 0  9996
2 53264  53.2170 220.9597 0001185  82.6964 277.4163 15.08843471200164
STARLINK-4097           
1 53265U 22086Z   26062.69650097  .00000961  00000+0  78456-4 0  9996
2 53265  53.2173 221.0255 0001254  86.1529 273.9607 15.08839993200162
STARLINK-4058           
1 53266U 22086AA  26062.70017752  .00000493  00000+0  49046-4 0  9997
2 53266  53.2172 221.0091 0001328  84.5954 275.5190 15.08844350200164
STARLINK-4060           
1 53267U 22086AB  26062.75538615  .00000097  00000+0  24181-4 0  9992
2 53267  53.2172 220.7618 0001207  85.3635 274.7495 15.08832580200179
STARLINK-4109           
1 53268U 22086AC  26062.75907462 -.00004260  00000+0 -24968-3 0  9993
2 53268  53.2167 220.7455 0001002 111.9394 248.1705 15.08850864200178
STARLINK-4057           
1 53269U 22086AD  26063.00001157  .01254755  00000+0  76868-2 0  9999
2 53269  53.2174 202.2254 0001128  40.8606  80.0879 15.74191381  5829
STARLINK-4122           
1 53272U 22086AG  26062.68637854 -.00000244  00000+0  27877-5 0  9996
2 53272  53.2167 211.0721 0001249  89.6423 270.4712 15.08845549200292
STARLINK-4051           
1 53273U 22086AH  26062.80045531  .00000921  00000+0  75920-4 0  9998
2 53273  53.2169 210.5595 0001278  69.4180 290.6949 15.08861374200308
STARLINK-4050           
1 53274U 22086AJ  26062.67902178 -.00000661  00000+0 -23417-4 0  9990
2 53274  53.2163 211.1037 0001091  81.4720 278.6396 15.08846440200295
STARLINK-4179           
1 53275U 22086AK  26062.73055444  .00003279  00000+0  22403-3 0  9992
2 53275  53.2166 210.8725 0001199  83.2782 276.8346 15.08833781200295
